TDRS 3                  
1 19548U 88091B   24219.73491650 -.00000300  00000+0  00000+0 0  9998
2 19548  13.1234 345.5635 0033676 338.0800 207.9107  1.00271771118575
HST                     
1 20580U 90037B   24220.59544918  .00008825  00000+0  40719-3 0  9995
2 20580  28.4699   0.5186 0001830 232.4899 127.5528 15.18470546684856
TDRS 5                  
1 21639U 91054B   24219.80380931 -.00000303  00000+0  00000+0 0  9995
2 21639  14.1559 358.7323 0004695 210.1526 333.9016  1.00266729120900
TDRS 6                  
1 22314U 93003B   24219.81611700 -.00000298  00000+0  00000+0 0  9997
2 22314  14.1624   2.0359 0011865 163.5891  38.0865  1.00276321115598
TDRS 7                  
1 23613U 95035B   24219.90458146 -.00000205  00000+0  00000+0 0  9998
2 23613  13.6601 352.8686 0027058  76.3049 297.2628  1.00276062106448
ISS (ZARYA)             
1 25544U 98067A   24220.66157645  .00018944  00000+0  34202-3 0  9999
2 25544  51.6401  60.3198 0005970 170.7700 227.9089 15.49743767466533
LANDSAT 7               
1 25682U 99020A   24220.60214541  .00001034  00000+0  22065-3 0  9991
2 25682  97.8861 244.9618 0001529 105.8744 353.0723 14.60797538346640
TERRA                   
1 25994U 99068A   24220.57646851  .00001072  00000+0  23317-3 0  9991
2 25994  98.0450 282.5495 0002029 162.8765 333.4863 14.59912492310549
TDRS 8                  
1 26388U 00034A   24220.63254664  .00000093  00000+0  00000+0 0  9990
2 26388  11.6090  36.8552 0002697 181.0479 158.9089  1.00276492 88376
TIMED                   
1 26998U 01055B   24220.15634804  .00002886  00000+0  29066-3 0  9995
2 26998  74.0721 159.1899 0002251 230.6256 129.4728 14.91676163229564
AQUA                    
1 27424U 02022A   24220.59557226  .00002141  00000+0  46020-3 0  9998
2 27424  98.3325 170.1727 0001172  54.1531  54.2990 14.59574404184179
TDRS 10                 
1 27566U 02055A   24220.62951858  .00000085  00000+0  00000+0 0  9993
2 27566   9.6581  45.0351 0004206 357.9180 329.2303  1.00267509 79424
SORCE                   
1 27651U 03004A   24220.18245050  .00005216  00000+0  47084-3 0  9992
2 27651  39.9925 156.1349 0022541 240.0843 119.7710 14.95688579169907
AURA                    
1 28376U 04026A   24220.61046894  .00002126  00000+0  46462-3 0  9991
2 28376  98.2524 165.1006 0000609  62.6382 297.4879 14.58804780 67171
SWIFT                   
1 28485U 04047A   24220.17658241  .00015739  00000+0  67142-3 0  9993
2 28485  20.5554 175.7468 0008202 219.7179 140.2657 15.20603958 81942
THEMIS A                
1 30580U 07004A   24219.56204432 -.00000173  00000+0  00000+0 0  9991
2 30580   9.5626 261.2837 8360532 329.3685   1.7259  0.87834673 35309
THEMIS D                
1 30797U 07004D   24219.97777097 -.00000131  00000+0  00000+0 0  9992
2 30797   5.2526 259.5249 8353121 335.2174 121.4727  0.87835775 35105
THEMIS E                
1 30798U 07004E   24219.61668876 -.00000147  00000+0  00000+0 0  9995
2 30798   7.1051 279.0277 8343399 316.8912  22.0235  0.87833342 59934
FGRST (GLAST)           
1 33053U 08029A   24220.41147817  .00004534  00000+0  20593-3 0  9993
2 33053  25.5813 217.3981 0009796 270.2243  89.7171 15.17266733892364
TDRS 11                 
1 39070U 13004A   24220.62492863  .00000079  00000+0  00000+0 0  9991
2 39070   2.7710  13.4510 0005196  62.6726 291.1395  1.00276328 39889
TDRS 12                 
1 39504U 14004A   24220.45199542 -.00000271  00000+0  00000+0 0  9998
2 39504   3.5582   4.6142 0005331 196.6504 236.8844  1.00266233 37475
GPM-CORE                
1 39574U 14009C   24220.53486566  .00014560  00000+0  31165-3 0  9999
2 39574  64.9841  61.1465 0009558 261.0142  98.9917 15.44966819592987
MMS 1                   
1 40482U 15011A   24220.66667824 -.00002204  00000+0  00000+0 0  9998
2 40482  51.0031   7.7712 9068823 149.5388 351.1165  0.28132164  1301
MMS 2                   
1 40483U 15011B   24220.66667824 -.00002207  00000+0  00000+0 0  9992
2 40483  51.0034   7.7734 9069404 149.5366 350.5191  0.28106154  1347
MMS 3                   
1 40484U 15011C   24220.66667824 -.00002206  00000+0  00000+0 0  9992
2 40484  51.0046   7.7723 9069292 149.5373 350.6221  0.28110102  1345
MMS 4                   
1 40485U 15011D   24220.66667824 -.00002210  00000+0  00000+0 0  9998
2 40485  51.0094   7.7751 9070629 149.5254 345.9696  0.28074062  1341
TDRS 13                 
1 42915U 17047A   24220.24323385 -.00000099  00000+0  00000+0 0  9997
2 42915   3.6019 345.7118 0017082 122.7903 283.8720  1.00272534 25543
NOAA 20 (JPSS-1)        
1 43013U 17073A   24220.58410208  .00000198  00000+0  11435-3 0  9991
2 43013  98.7066 157.6462 0002392  81.3453 278.7995 14.19553930348192
